{
  "type": "FeatureCollection",
  "features": [
    {
      "type": "Feature",
      "properties": {
        "norad_id": 34003,
        "name": "COSMOS 2251 DEB",
        "group": "cosmos-2251-debris",
        "lat": -65.12008817199862,
        "lon": 130.6522804323176,
        "alt_km": 1088.5768459661076,
        "timestamp": "2025-12-20T03:42:47.787557+00:00",
        "meta_object_name": "COSMOS 2251 DEB",
        "meta_object_id": "1993-036GN",
        "meta_epoch": "2025-12-18T21:00:51.472800",
        "meta_mean_motion": 13.84184634,
        "meta_eccentricity": 0.02748454,
        "meta_inclination": 74.0781,
        "meta_ra_of_asc_node": 274.8157,
        "meta_arg_of_pericenter": 25.4118,
        "meta_mean_anomaly": 336.0231,
        "meta_ephemeris_type": 0,
        "meta_classification_type": "U",
        "meta_norad_cat_id": 34003,
        "meta_element_set_no": 999,
        "meta_rev_at_epoch": 84510,
        "meta_bstar": 0.0015140525,
        "meta_mean_motion_dot": 2.24e-05,
        "meta_mean_motion_ddot": 0,
        "tle_line1": "1 34003U 93036GN  25352.87559575  .00002240  00000+0  15141-2 0  9990",
        "tle_line2": "2 34003  74.0781 274.8157 0274845  25.4118 336.0231 13.84184634845102"
      },
      "geometry": {
        "type": "Point",
        "coordinates": [
          130.6522804323176,
          -65.12008817199862
        ]
      }
    },
    {
      "type": "Feature",
      "properties": {
        "norad_id": 34004,
        "name": "COSMOS 2251 DEB",
        "group": "cosmos-2251-debris",
        "lat": -1.5041124226370466,
        "lon": 119.63620990616877,
        "alt_km": 746.406562963225,
        "timestamp": "2025-12-20T03:42:47.787567+00:00",
        "meta_object_name": "COSMOS 2251 DEB",
        "meta_object_id": "1993-036GP",
        "meta_epoch": "2025-12-19T05:20:10.228704",
        "meta_mean_motion": 14.49065638,
        "meta_eccentricity": 0.0033435,
        "meta_inclination": 74.0356,
        "meta_ra_of_asc_node": 300.9531,
        "meta_arg_of_pericenter": 312.416,
        "meta_mean_anomaly": 47.4172,
        "meta_ephemeris_type": 0,
        "meta_classification_type": "U",
        "meta_norad_cat_id": 34004,
        "meta_element_set_no": 999,
        "meta_rev_at_epoch": 88124,
        "meta_bstar": 0.00086157,
        "meta_mean_motion_dot": 3.268e-05,
        "meta_mean_motion_ddot": 0,
        "tle_line1": "1 34004U 93036GP  25353.22234061  .00003268  00000+0  86157-3 0  9998",
        "tle_line2": "2 34004  74.0356 300.9531 0033435 312.4160  47.4172 14.49065638881248"
      },
      "geometry": {
        "type": "Point",
        "coordinates": [
          119.63620990616877,
          -1.5041124226370466
        ]
      }
    },
    {
      "type": "Feature",
      "properties": {
        "norad_id": 34005,
        "name": "COSMOS 2251 DEB",
        "group": "cosmos-2251-debris",
        "lat": -40.259715254105195,
        "lon": 33.96977787136946,
        "alt_km": 764.8465583501193,
        "timestamp": "2025-12-20T03:42:47.787577+00:00",
        "meta_object_name": "COSMOS 2251 DEB",
        "meta_object_id": "1993-036GQ",
        "meta_epoch": "2025-12-19T07:28:53.752800",
        "meta_mean_motion": 14.4030881,
        "meta_eccentricity": 0.0021069,
        "meta_inclination": 74.0437,
        "meta_ra_of_asc_node": 201.5051,
        "meta_arg_of_pericenter": 318.6209,
        "meta_mean_anomaly": 214.5502,
        "meta_ephemeris_type": 0,
        "meta_classification_type": "U",
        "meta_norad_cat_id": 34005,
        "meta_element_set_no": 999,
        "meta_rev_at_epoch": 88473,
        "meta_bstar": 8.2213e-05,
        "meta_mean_motion_dot": 2.35e-06,
        "meta_mean_motion_ddot": 0,
        "tle_line1": "1 34005U 93036GQ  25353.31173325  .00000235  00000+0  82213-4 0  9995",
        "tle_line2": "2 34005  74.0437 201.5051 0021069 318.6209 214.5502 14.40308810884738"
      },
      "geometry": {
        "type": "Point",
        "coordinates": [
          33.96977787136946,
          -40.259715254105195
        ]
      }
    },
    {
      "type": "Feature",
      "properties": {
        "norad_id": 34006,
        "name": "COSMOS 2251 DEB",
        "group": "cosmos-2251-debris",
        "lat": 31.877362335580774,
        "lon": -61.89471602931592,
        "alt_km": 578.1230640558724,
        "timestamp": "2025-12-20T03:42:47.787587+00:00",
        "meta_object_name": "COSMOS 2251 DEB",
        "meta_object_id": "1993-036GR",
        "meta_epoch": "2025-12-18T03:40:23.640096",
        "meta_mean_motion": 14.95111084,
        "meta_eccentricity": 0.00113796,
        "meta_inclination": 74.0524,
        "meta_ra_of_asc_node": 132.3805,
        "meta_arg_of_pericenter": 71.3364,
        "meta_mean_anomaly": 105.5146,
        "meta_ephemeris_type": 0,
        "meta_classification_type": "U",
        "meta_norad_cat_id": 34006,
        "meta_element_set_no": 999,
        "meta_rev_at_epoch": 88749,
        "meta_bstar": 0.0025744949,
        "meta_mean_motion_dot": 0.00028351,
        "meta_mean_motion_ddot": 0,
        "tle_line1": "1 34006U 93036GR  25352.15305139  .00028351  00000+0  25745-2 0  9991",
        "tle_line2": "2 34006  74.0524 132.3805 0011379  71.3364 105.5146 14.95111084887496"
      },
      "geometry": {
        "type": "Point",
        "coordinates": [
          -61.89471602931592,
          31.877362335580774
        ]
      }
    },
    {
      "type": "Feature",
      "properties": {
        "norad_id": 34007,
        "name": "COSMOS 2251 DEB",
        "group": "cosmos-2251-debris",
        "lat": -1.84037686988746,
        "lon": -27.905598407006835,
        "alt_km": 689.4781369669099,
        "timestamp": "2025-12-20T03:42:47.787597+00:00",
        "meta_object_name": "COSMOS 2251 DEB",
        "meta_object_id": "1993-036GS",
        "meta_epoch": "2025-12-19T16:14:54.146112",
        "meta_mean_motion": 14.64830622,
        "meta_eccentricity": 0.0044216,
        "meta_inclination": 74.0188,
        "meta_ra_of_asc_node": 333.5412,
        "meta_arg_of_pericenter": 106.2183,
        "meta_mean_anomaly": 254.3857,
        "meta_ephemeris_type": 0,
        "meta_classification_type": "U",
        "meta_norad_cat_id": 34007,
        "meta_element_set_no": 999,
        "meta_rev_at_epoch": 89181,
        "meta_bstar": 0.00047013,
        "meta_mean_motion_dot": 2.515e-05,
        "meta_mean_motion_ddot": 0,
        "tle_line1": "1 34007U 93036GS  25353.67701558  .00002515  00000+0  47013-3 0  9992",
        "tle_line2": "2 34007  74.0188 333.5412 0044216 106.2183 254.3857 14.64830622891810"
      },
      "geometry": {
        "type": "Point",
        "coordinates": [
          -27.905598407006835,
          -1.84037686988746
        ]
      }
    },
    {
      "type": "Feature",
      "properties": {
        "norad_id": 34008,
        "name": "COSMOS 2251 DEB",
        "group": "cosmos-2251-debris",
        "lat": -57.91871240630488,
        "lon": -70.20727865970717,
        "alt_km": 770.8242672770621,
        "timestamp": "2025-12-20T03:42:47.787619+00:00",
        "meta_object_name": "COSMOS 2251 DEB",
        "meta_object_id": "1993-036GT",
        "meta_epoch": "2025-12-19T08:36:26.781120",
        "meta_mean_motion": 14.33150515,
        "meta_eccentricity": 0.0024534,
        "meta_inclination": 74.0344,
        "meta_ra_of_asc_node": 318.4214,
        "meta_arg_of_pericenter": 312.6344,
        "meta_mean_anomaly": 200.0992,
        "meta_ephemeris_type": 0,
        "meta_classification_type": "U",
        "meta_norad_cat_id": 34008,
        "meta_element_set_no": 999,
        "meta_rev_at_epoch": 88059,
        "meta_bstar": 8.5658e-05,
        "meta_mean_motion_dot": 2.1e-06,
        "meta_mean_motion_ddot": 0,
        "tle_line1": "1 34008U 93036GT  25353.35864330  .00000210  00000+0  85658-4 0  9994",
        "tle_line2": "2 34008  74.0344 318.4214 0024534 312.6344 200.0992 14.33150515880593"
      },
      "geometry": {
        "type": "Point",
        "coordinates": [
          -70.20727865970717,
          -57.91871240630488
        ]
      }
    },
    {
      "type": "Feature",
      "properties": {
        "norad_id": 34009,
        "name": "COSMOS 2251 DEB",
        "group": "cosmos-2251-debris",
        "lat": -23.072893057315003,
        "lon": -43.617105110191204,
        "alt_km": 774.9504856394833,
        "timestamp": "2025-12-20T03:42:47.787630+00:00",
        "meta_object_name": "COSMOS 2251 DEB",
        "meta_object_id": "1993-036GU",
        "meta_epoch": "2025-12-19T04:26:37.889664",
        "meta_mean_motion": 14.3322722,
        "meta_eccentricity": 0.00267543,
        "meta_inclination": 74.0373,
        "meta_ra_of_asc_node": 325.1572,
        "meta_arg_of_pericenter": 32.8472,
        "meta_mean_anomaly": 342.9075,
        "meta_ephemeris_type": 0,
        "meta_classification_type": "U",
        "meta_norad_cat_id": 34009,
        "meta_element_set_no": 999,
        "meta_rev_at_epoch": 88038,
        "meta_bstar": 0.00011569587,
        "meta_mean_motion_dot": 2.93e-06,
        "meta_mean_motion_ddot": 0,
        "tle_line1": "1 34009U 93036GU  25353.18516076  .00000293  00000+0  11570-3 0  9999",
        "tle_line2": "2 34009  74.0373 325.1572 0026754  32.8472 342.9075 14.33227220880380"
      },
      "geometry": {
        "type": "Point",
        "coordinates": [
          -43.617105110191204,
          -23.072893057315003
        ]
      }
    }
  ]
}